IRIDIUM 136             
1 42962U 17061H   24124.61369107  .00000353  00000+0  11907-3 0  9995
2 42962  86.3988 348.9584 0002478  84.8363 275.3116 14.34218400343812
